{
  "type": "FeatureCollection",
  "features": [
    {
      "type": "Feature",
      "properties": {
        "norad_id": 34815,
        "name": "COSMOS 2251 DEB",
        "group": "cosmos-2251-debris",
        "lat": 73.61578594973882,
        "lon": -19.631262028631884,
        "alt_km": 662.1378560250123,
        "timestamp": "2025-12-15T04:01:20.847227+00:00",
        "meta_object_name": "COSMOS 2251 DEB",
        "meta_object_id": "1993-036ABE",
        "meta_epoch": "2025-12-14T03:14:15.513792",
        "meta_mean_motion": 14.78339156,
        "meta_eccentricity": 0.00588556,
        "meta_inclination": 74.0449,
        "meta_ra_of_asc_node": 239.0609,
        "meta_arg_of_pericenter": 307.8231,
        "meta_mean_anomaly": 51.7625,
        "meta_ephemeris_type": 0,
        "meta_classification_type": "U",
        "meta_norad_cat_id": 34815,
        "meta_element_set_no": 999,
        "meta_rev_at_epoch": 88648,
        "meta_bstar": 0.00090407047,
        "meta_mean_motion_dot": 6.74e-05,
        "meta_mean_motion_ddot": 0,
        "tle_line1": "1 34815U 93036ABE 25348.13490178  .00006740  00000+0  90407-3 0  9996",
        "tle_line2": "2 34815  74.0449 239.0609 0058855 307.8231  51.7625 14.78339156886482"
      },
      "geometry": {
        "type": "Point",
        "coordinates": [
          -19.631262028631884,
          73.61578594973882
        ]
      }
    },
    {
      "type": "Feature",
      "properties": {
        "norad_id": 34816,
        "name": "COSMOS 2251 DEB",
        "group": "cosmos-2251-debris",
        "lat": 67.15542660457902,
        "lon": -177.51123645439512,
        "alt_km": 1205.1297429198103,
        "timestamp": "2025-12-15T04:01:20.847237+00:00",
        "meta_object_name": "COSMOS 2251 DEB",
        "meta_object_id": "1993-036ABF",
        "meta_epoch": "2025-12-14T03:29:02.256864",
        "meta_mean_motion": 13.58328095,
        "meta_eccentricity": 0.03733885,
        "meta_inclination": 73.8862,
        "meta_ra_of_asc_node": 140.8284,
        "meta_arg_of_pericenter": 205.0597,
        "meta_mean_anomaly": 274.0659,
        "meta_ephemeris_type": 0,
        "meta_classification_type": "U",
        "meta_norad_cat_id": 34816,
        "meta_element_set_no": 999,
        "meta_rev_at_epoch": 82802,
        "meta_bstar": 0.0016074994,
        "meta_mean_motion_dot": 1.819e-05,
        "meta_mean_motion_ddot": 0,
        "tle_line1": "1 34816U 93036ABF 25348.14516501  .00001819  00000+0  16075-2 0  9997",
        "tle_line2": "2 34816  73.8862 140.8284 0373388 205.0597 274.0659 13.58328095828022"
      },
      "geometry": {
        "type": "Point",
        "coordinates": [
          -177.51123645439512,
          67.15542660457902
        ]
      }
    },
    {
      "type": "Feature",
      "properties": {
        "norad_id": 34818,
        "name": "COSMOS 2251 DEB",
        "group": "cosmos-2251-debris",
        "lat": 7.9276397656870135,
        "lon": -65.24012008805714,
        "alt_km": 752.7209429175873,
        "timestamp": "2025-12-15T04:01:20.847248+00:00",
        "meta_object_name": "COSMOS 2251 DEB",
        "meta_object_id": "1993-036ABH",
        "meta_epoch": "2025-12-14T06:57:49.282272",
        "meta_mean_motion": 14.36969532,
        "meta_eccentricity": 0.00242402,
        "meta_inclination": 74.036,
        "meta_ra_of_asc_node": 294.0881,
        "meta_arg_of_pericenter": 9.3899,
        "meta_mean_anomaly": 141.6705,
        "meta_ephemeris_type": 0,
        "meta_classification_type": "U",
        "meta_norad_cat_id": 34818,
        "meta_element_set_no": 999,
        "meta_rev_at_epoch": 87392,
        "meta_bstar": 0.00029685586,
        "meta_mean_motion_dot": 8.56e-06,
        "meta_mean_motion_ddot": 0,
        "tle_line1": "1 34818U 93036ABH 25348.29015373  .00000856  00000+0  29686-3 0  9999",
        "tle_line2": "2 34818  74.0360 294.0881 0024240   9.3899 141.6705 14.36969532873929"
      },
      "geometry": {
        "type": "Point",
        "coordinates": [
          -65.24012008805714,
          7.9276397656870135
        ]
      }
    },
    {
      "type": "Feature",
      "properties": {
        "norad_id": 34819,
        "name": "COSMOS 2251 DEB",
        "group": "cosmos-2251-debris",
        "lat": 17.163135377153157,
        "lon": -47.08610091872372,
        "alt_km": 676.5899337529272,
        "timestamp": "2025-12-15T04:01:20.847259+00:00",
        "meta_object_name": "COSMOS 2251 DEB",
        "meta_object_id": "1993-036ABJ",
        "meta_epoch": "2025-12-14T03:13:21.079200",
        "meta_mean_motion": 14.63997819,
        "meta_eccentricity": 0.00157122,
        "meta_inclination": 74.0175,
        "meta_ra_of_asc_node": 139.978,
        "meta_arg_of_pericenter": 234.2425,
        "meta_mean_anomaly": 244.094,
        "meta_ephemeris_type": 0,
        "meta_classification_type": "U",
        "meta_norad_cat_id": 34819,
        "meta_element_set_no": 999,
        "meta_rev_at_epoch": 88249,
        "meta_bstar": 0.0017059273,
        "meta_mean_motion_dot": 8.937e-05,
        "meta_mean_motion_ddot": 0,
        "tle_line1": "1 34819U 93036ABJ 25348.13427175  .00008937  00000+0  17059-2 0  9998",
        "tle_line2": "2 34819  74.0175 139.9780 0015712 234.2425 244.0940 14.63997819882497"
      },
      "geometry": {
        "type": "Point",
        "coordinates": [
          -47.08610091872372,
          17.163135377153157
        ]
      }
    },
    {
      "type": "Feature",
      "properties": {
        "norad_id": 34823,
        "name": "COSMOS 2251 DEB",
        "group": "cosmos-2251-debris",
        "lat": 48.34373297904293,
        "lon": -101.07948492586424,
        "alt_km": 637.7177233641014,
        "timestamp": "2025-12-15T04:01:20.847269+00:00",
        "meta_object_name": "COSMOS 2251 DEB",
        "meta_object_id": "1993-036ABN",
        "meta_epoch": "2025-12-14T07:37:20.656416",
        "meta_mean_motion": 14.54945629,
        "meta_eccentricity": 0.01545753,
        "meta_inclination": 74.0412,
        "meta_ra_of_asc_node": 99.2928,
        "meta_arg_of_pericenter": 183.6864,
        "meta_mean_anomaly": 176.3176,
        "meta_ephemeris_type": 0,
        "meta_classification_type": "U",
        "meta_norad_cat_id": 34823,
        "meta_element_set_no": 999,
        "meta_rev_at_epoch": 88404,
        "meta_bstar": 0.00085725562,
        "meta_mean_motion_dot": 4.3e-05,
        "meta_mean_motion_ddot": 0,
        "tle_line1": "1 34823U 93036ABN 25348.31760019  .00004300  00000+0  85726-3 0  9997",
        "tle_line2": "2 34823  74.0412  99.2928 0154575 183.6864 176.3176 14.54945629884046"
      },
      "geometry": {
        "type": "Point",
        "coordinates": [
          -101.07948492586424,
          48.34373297904293
        ]
      }
    },
    {
      "type": "Feature",
      "properties": {
        "norad_id": 34845,
        "name": "COSMOS 2251 DEB",
        "group": "cosmos-2251-debris",
        "lat": 18.62358700775904,
        "lon": 149.3613174108912,
        "alt_km": 735.1070462589678,
        "timestamp": "2025-12-15T04:01:20.847280+00:00",
        "meta_object_name": "COSMOS 2251 DEB",
        "meta_object_id": "1993-036ABP",
        "meta_epoch": "2025-12-09T20:04:05.418048",
        "meta_mean_motion": 14.45850049,
        "meta_eccentricity": 0.00222586,
        "meta_inclination": 74.0237,
        "meta_ra_of_asc_node": 153.7694,
        "meta_arg_of_pericenter": 315.2139,
        "meta_mean_anomaly": 44.7222,
        "meta_ephemeris_type": 0,
        "meta_classification_type": "U",
        "meta_norad_cat_id": 34845,
        "meta_element_set_no": 999,
        "meta_rev_at_epoch": 87424,
        "meta_bstar": 0.00046671234,
        "meta_mean_motion_dot": 1.636e-05,
        "meta_mean_motion_ddot": 0,
        "tle_line1": "1 34845U 93036ABP 25343.83617382  .00001636  00000+0  46671-3 0  9992",
        "tle_line2": "2 34845  74.0237 153.7694 0022258 315.2139  44.7222 14.45850049874243"
      },
      "geometry": {
        "type": "Point",
        "coordinates": [
          149.3613174108912,
          18.62358700775904
        ]
      }
    },
    {
      "type": "Feature",
      "properties": {
        "norad_id": 34846,
        "name": "COSMOS 2251 DEB",
        "group": "cosmos-2251-debris",
        "lat": -28.455510341421864,
        "lon": -111.69210339591945,
        "alt_km": 721.7515288845261,
        "timestamp": "2025-12-15T04:01:20.847290+00:00",
        "meta_object_name": "COSMOS 2251 DEB",
        "meta_object_id": "1993-036ABQ",
        "meta_epoch": "2025-12-14T04:55:57.499968",
        "meta_mean_motion": 14.47228462,
        "meta_eccentricity": 0.00261104,
        "meta_inclination": 74.0308,
        "meta_ra_of_asc_node": 259.034,
        "meta_arg_of_pericenter": 325.2527,
        "meta_mean_anomaly": 34.6925,
        "meta_ephemeris_type": 0,
        "meta_classification_type": "U",
        "meta_norad_cat_id": 34846,
        "meta_element_set_no": 999,
        "meta_rev_at_epoch": 87425,
        "meta_bstar": 0.00096837074,
        "meta_mean_motion_dot": 3.528e-05,
        "meta_mean_motion_ddot": 0,
        "tle_line1": "1 34846U 93036ABQ 25348.20552662  .00003528  00000+0  96837-3 0  9999",
        "tle_line2": "2 34846  74.0308 259.0340 0026110 325.2527  34.6925 14.47228462874253"
      },
      "geometry": {
        "type": "Point",
        "coordinates": [
          -111.69210339591945,
          -28.455510341421864
        ]
      }
    }
  ]
}